NORAD_CAT_ID,OBJECT_NAME,OBJECT_TYPE,EPOCH,MEAN_MOTION,ECCENTRICITY,INCLINATION,RA_OF_ASC_NODE,ARG_OF_PERICENTER,MEAN_ANOMALY,BSTAR,MEAN_MOTION_DOT,MEAN_MOTION_DDOT,TLE_LINE0,TLE_LINE1,TLE_LINE2,SEMIMAJOR_AXIS,PERIOD,APOGEE,PERIGEE,DECAYED
52477.0,STARLINK-3860,PAYLOAD,2023-07-19 17:40:53,15.08829813,0.0001567,53.2165,56.4813,72.4702,287.6461,-3.9846e-05,-9.22e-06,0.0,0 STARLINK-3860,1 52477U 22049AC  23200.73673284 -.00000922  00000-0 -39846-4 0  9998,2 52477  53.2165  56.4813 0001567  72.4702 287.6461 15.08829813 67021,6917.912,95.438,540.861,538.692,0.0
52477.0,STARLINK-3860,PAYLOAD,2023-07-20 23:53:12,15.08856134,0.0001143,53.2171,50.8234,97.4815,262.6307,0.00040176,6.115e-05,0.0,0 STARLINK-3860,1 52477U 22049AC  23201.99528359  .00006115  00000-0  40176-3 0  9994,2 52477  53.2171  50.8234 0001143  97.4815 262.6307 15.08856134 67214,6917.831,95.437,540.487,538.905,0.0
52477.0,STARLINK-3860,PAYLOAD,2023-07-21 15:47:04,15.08846412,0.0001289,53.2164,47.8506,79.0173,281.0965,0.00023129,3.396e-05,0.0,0 STARLINK-3860,1 52477U 22049AC  23202.65768993  .00003396  00000-0  23129-3 0  9995,2 52477  53.2164  47.8506 0001289  79.0173 281.0965 15.08846412 67312,6917.861,95.437,540.618,538.834,0.0
52477.0,STARLINK-3860,PAYLOAD,2023-07-24 01:00:57,15.0884045,0.0001626,53.2165,37.1425,103.745,256.3724,0.00021413,3.122e-05,0.0,0 STARLINK-3860,1 52477U 22049AC  23205.04233417  .00003122  00000-0  21413-3 0  9990,2 52477  53.2165  37.1425 0001626 103.7450 256.3724 15.08840450 68756,6917.879,95.438,540.869,538.619,0.0
52477.0,STARLINK-3860,PAYLOAD,2023-07-25 11:59:26,15.08843126,0.0001462,53.2149,30.6011,104.2087,255.9067,3.8557e-05,3.26e-06,0.0,0 STARLINK-3860,1 52477U 22049AC  23206.49960988  .00000326  00000-0  38557-4 0  9991,2 52477  53.2149  30.6011 0001462 104.2087 255.9067 15.08843126 68979,6917.871,95.437,540.747,538.724,0.0
52477.0,STARLINK-3860,PAYLOAD,2023-07-25 19:56:21,15.088467,0.0001139,53.2164,29.1163,85.6979,274.4143,0.00017855,2.555e-05,0.0,0 STARLINK-3860,1 52477U 22049AC  23206.83080988  .00002555  00000-0  17855-3 0  9995,2 52477  53.2164  29.1163 0001139  85.6979 274.4143 15.08846700 69029,6917.86,95.437,540.513,538.937,0.0
52477.0,STARLINK-3860,PAYLOAD,2023-07-26 15:00:59,15.08848164,0.0001112,53.2169,25.549,76.4408,283.6708,0.00042149,6.428e-05,0.0,0 STARLINK-3860,1 52477U 22049AC  23207.62569000  .00006428  00000-0  42149-3 0  9997,2 52477  53.2169  25.5490 0001112  76.4408 283.6708 15.08848164 68061,6917.855,95.437,540.49,538.951,0.0
52477.0,STARLINK-3860,PAYLOAD,2023-07-26 21:22:31,15.08856351,0.0001145,53.217,24.3591,83.2339,276.8784,0.00065254,0.00010117,0.0,0 STARLINK-3860,1 52477U 22049AC  23207.89064724  .00010117  00000-0  65254-3 0  9991,2 52477  53.2170  24.3591 0001145  83.2339 276.8784 15.08856351 69186,6917.83,95.437,540.488,538.903,0.0
52477.0,STARLINK-3860,PAYLOAD,2023-07-27 14:51:46,15.08838858,0.0001367,53.2173,21.0891,86.79,273.3248,0.00011909,1.608e-05,0.0,0 STARLINK-3860,1 52477U 22049AC  23208.61929353  .00001608  00000-0  11909-3 0  9993,2 52477  53.2173  21.0891 0001367  86.7900 273.3248 15.08838858 68216,6917.884,95.438,540.695,538.803,0.0
52477.0,STARLINK-3860,PAYLOAD,2023-07-27 21:13:19,15.08836663,0.000125,53.2168,19.8982,77.0771,283.0361,9.0182e-05,1.148e-05,0.0,0 STARLINK-3860,1 52477U 22049AC  23208.88425554  .00001148  00000-0  90182-4 0  9996,2 52477  53.2168  19.8982 0001250  77.0771 283.0361 15.08836663 69336,6917.891,95.438,540.62,538.891,0.0
52477.0,STARLINK-3860,PAYLOAD,2023-07-28 21:04:06,15.08843928,0.0001184,53.2157,15.436,77.7253,282.3871,0.00030833,4.623e-05,0.0,0 STARLINK-3860,1 52477U 22049AC  23209.87785591  .00004623  00000-0  30833-3 0  9993,2 52477  53.2157  15.4360 0001184  77.7253 282.3871 15.08843928 68401,6917.868,95.437,540.552,538.914,0.0
52477.0,STARLINK-3860,PAYLOAD,2023-07-30 11:13:21,15.08836433,0.0001073,53.2178,8.3012,80.7751,279.3362,-0.00011168,-2.065e-05,0.0,0 STARLINK-3860,1 52477U 22049AC  23211.46761544 -.00002065  00000-0 -11168-3 0  9993,2 52477  53.2178   8.3012 0001073  80.7751 279.3362 15.08836433 68643,6917.891,95.438,540.499,539.014,0.0
52477.0,STARLINK-3860,PAYLOAD,2023-07-30 19:10:17,15.08846512,0.0001085,53.2183,6.8145,82.2812,277.8304,9.2723e-05,1.188e-05,0.0,0 STARLINK-3860,1 52477U 22049AC  23211.79881224  .00001188  00000-0  92723-4 0  9997,2 52477  53.2183   6.8145 0001085  82.2812 277.8304 15.08846512 68690,6917.86,95.437,540.476,538.975,0.0
52477.0,STARLINK-3860,PAYLOAD,2023-07-31 17:25:41,15.08845251,0.000101,53.2178,2.6513,81.2426,278.868,9.1664e-05,1.172e-05,0.0,0 STARLINK-3860,1 52477U 22049AC  23212.72617448  .00001172  00000-0  91664-4 0  9992,2 52477  53.2178   2.6513 0001010  81.2426 278.8680 15.08845251 68838,6917.864,95.437,540.428,539.031,0.0
52477.0,STARLINK-3860,PAYLOAD,2023-08-01 17:16:28,15.0884196,0.0001057,53.2185,358.1912,70.3244,289.7862,0.0001436,1.998e-05,0.0,0 STARLINK-3860,1 52477U 22049AC  23213.71977789  .00001998  00000-0  14360-3 0  9992,2 52477  53.2185 358.1912 0001057  70.3244 289.7862 15.08841960 68988,6917.874,95.437,540.471,539.008,0.0
52477.0,STARLINK-3860,PAYLOAD,2023-08-03 09:01:07,15.08843537,0.0001077,53.2191,350.7562,91.7499,268.3617,8.551e-05,1.073e-05,0.0,0 STARLINK-3860,1 52477U 22049AC  23215.37577827  .00001073  00000-0  85510-4 0  9995,2 52477  53.2191 350.7562 0001077  91.7499 268.3617 15.08843537 69237,6917.87,95.437,540.48,538.99,0.0
52477.0,STARLINK-3860,PAYLOAD,2023-08-04 13:38:03,15.08840239,0.0001283,53.2188,345.4044,65.8776,294.2351,4.1636e-06,-2.22e-06,0.0,0 STARLINK-3860,1 52477U 22049AC  23216.56810155 -.00000222  00000-0  41636-5 0  9999,2 52477  53.2188 345.4044 0001283  65.8776 294.2351 15.08840239 69417,6917.88,95.438,540.632,538.857,0.0
52477.0,STARLINK-3860,PAYLOAD,2023-08-04 19:59:36,15.08849084,0.0001187,53.2183,344.2129,80.2824,279.8302,0.00013382,1.843e-05,0.0,0 STARLINK-3860,1 52477U 22049AC  23216.83305640  .00001843  00000-0  13382-3 0  9991,2 52477  53.2183 344.2129 0001187  80.2824 279.8302 15.08849084 69457,6917.853,95.437,540.539,538.896,0.0
52477.0,STARLINK-3860,PAYLOAD,2023-08-05 19:50:22,15.08867659,0.000116,53.2184,339.7515,92.2792,267.8333,0.00056229,8.679e-05,0.0,0 STARLINK-3860,1 52477U 22049AC  23217.82664704  .00008679  00000-0  56229-3 0  9991,2 52477  53.2184 339.7515 0001160  92.2792 267.8333 15.08867659 69600,6917.796,95.436,540.463,538.858,0.0
52477.0,STARLINK-3860,PAYLOAD,2023-08-06 10:08:52,15.08819725,0.0001636,53.217,337.0732,138.4228,221.6889,-0.00042149,-6.986e-05,0.0,0 STARLINK-3860,1 52477U 22049AC  23218.42282465 -.00006986  00000-0 -42149-3 0  9995,2 52477  53.2170 337.0732 0001636 138.4228 221.6889 15.08819725 69696,6917.942,95.439,540.939,538.676,0.0
52477.0,STARLINK-3860,PAYLOAD,2023-08-06 18:05:47,15.08829699,0.0001116,53.2185,335.5924,107.8462,252.2652,6.8155e-05,7.97e-06,0.0,0 STARLINK-3860,1 52477U 22049AC  23218.75402671  .00000797  00000-0  68155-4 0  9992,2 52477  53.2185 335.5924 0001116 107.8462 252.2652 15.08829699 69746,6917.912,95.438,540.549,539.005,0.0
52477.0,STARLINK-3860,PAYLOAD,2023-08-07 17:56:34,15.08863251,8.82e-05,53.2177,331.1322,93.678,266.4313,0.0010944,0.00017183,0.0,0 STARLINK-3860,1 52477U 22049AC  23219.74762498  .00017183  00000-0  10944-2 0  9996,2 52477  53.2177 331.1322 0000882  93.6780 266.4313 15.08863251 69894,6917.809,95.436,540.284,539.064,0.0
52477.0,STARLINK-3860,PAYLOAD,2023-08-08 00:18:07,15.08849483,9.84e-05,53.2179,329.9416,105.0578,255.0523,0.00037174,5.635e-05,0.0,0 STARLINK-3860,1 52477U 22049AC  23220.01258597  .00005635  00000-0  37174-3 0  9992,2 52477  53.2179 329.9416 0000984 105.0578 255.0523 15.08849483 69934,6917.851,95.437,540.397,539.036,0.0
52477.0,STARLINK-3860,PAYLOAD,2023-08-09 14:27:22,15.0884093,7.63e-05,53.2172,322.8057,86.3155,273.7924,0.0002555,3.781e-05,0.0,0 STARLINK-3860,1 52477U 22049AC  23221.60234777  .00003781  00000-0  25550-3 0  9997,2 52477  53.2172 322.8057 0000763  86.3155 273.7924 15.08840930 70175,6917.878,95.437,540.27,539.215,0.0
52477.0,STARLINK-3860,PAYLOAD,2023-08-10 15:53:32,15.08851512,8.91e-05,53.2169,318.045,104.6536,255.4555,0.00045905,7.028e-05,0.0,0 STARLINK-3860,1 52477U 22049AC  23222.66218348  .00007028  00000-0  45905-3 0  9994,2 52477  53.2169 318.0450 0000891 104.6536 255.4555 15.08851512 70337,6917.845,95.437,540.327,539.094,0.0
52477.0,STARLINK-3860,PAYLOAD,2023-08-10 23:50:28,15.08841422,0.0001058,53.2183,316.5548,144.6754,215.4309,0.00027342,4.067e-05,0.0,0 STARLINK-3860,1 52477U 22049AC  23222.99338499  .00004067  00000-0  27342-3 0  9995,2 52477  53.2183 316.5548 0001058 144.6754 215.4309 15.08841422 70383,6917.876,95.437,540.473,539.009,0.0
52477.0,STARLINK-3860,PAYLOAD,2023-08-11 23:41:15,15.08837902,7.53e-05,53.2177,312.098,110.9137,249.1936,2.7081e-05,1.43e-06,0.0,0 STARLINK-3860,1 52477U 22049AC  23223.98698886  .00000143  00000-0  27081-4 0  9996,2 52477  53.2177 312.0980 0000753 110.9137 249.1936 15.08837902 70534,6917.887,95.438,540.273,539.231,0.0
52477.0,STARLINK-3860,PAYLOAD,2023-08-12 17:10:30,15.0885036,7.36e-05,53.2174,308.8293,82.7957,277.3118,0.0003784,5.741e-05,0.0,0 STARLINK-3860,1 52477U 22049AC  23224.71562639  .00005741  00000-0  37840-3 0  9996,2 52477  53.2174 308.8293 0000736  82.7957 277.3118 15.08850360 70648,6917.849,95.437,540.223,539.205,0.0
52477.0,STARLINK-3860,PAYLOAD,2023-08-13 05:53:35,15.08842219,0.0001209,53.2179,306.449,117.5818,242.5297,0.00016281,2.304e-05,0.0,0 STARLINK-3860,1 52477U 22049AC  23225.24554935  .00002304  00000-0  16281-3 0  9993,2 52477  53.2179 306.4490 0001209 117.5818 242.5297 15.08842219 70720,6917.874,95.437,540.575,538.902,0.0
52477.0,STARLINK-3860,PAYLOAD,2023-08-13 21:47:27,15.08834434,0.0001919,53.2182,303.4733,77.5223,282.5983,-1.9369e-06,-3.19e-06,0.0,0 STARLINK-3860,1 52477U 22049AC  23225.90795516 -.00000319  00000-0 -19369-5 0  9996,2 52477  53.2182 303.4733 0001919  77.5223 282.5983 15.08834434 70821,6917.897,95.438,541.09,538.435,0.0
